YAOGAN-35 04A           
1 53522U 22100A   22261.01777855  .00008335  00000+0  34598-3 0  9995
2 53522  35.0072  23.6035 0006417 173.9601 186.1290 15.23096900  4477
CZ-2D R/B               
1 53523U 22100B   22260.80784149  .00021792  00000+0  87295-3 0  9990
2 53523  34.9992  24.7209 0006713 169.4050 190.6806 15.24134689  4447
YAOGAN-35 04B           
1 53524U 22100C   22260.81762168  .00010939  00000+0  45621-3 0  9997
2 53524  35.0024  24.8020 0006163 165.5487 194.5405 15.22891981  4393
CZ-2D DEB               
1 53525U 22100D   22260.80113652  .00024091  00000+0  95296-3 0  9992
2 53525  34.9986  24.6630 0006819 181.6342 178.4351 15.24538454  4397
YAOGAN-35 04C           
1 53526U 22100E   22260.75526328  .00009444  00000+0  39274-3 0  9994
2 53526  35.0009  25.2410 0005141 185.5332 174.5326 15.23019099  4384
STARLINK-4511           
1 53527U 22101A   22260.91667824 -.01132588  00000+0 -25459-1 0  9998
2 53527  53.2171  11.9699 0001457  48.6394 223.6907 15.45428333  1300
STARLINK-4503           
1 53528U 22101B   22261.16667824 -.01126035  00000+0 -26107-1 0  9998
2 53528  53.2172  10.7671 0001768  37.6577 182.7852 15.44510529  4625
STARLINK-4478           
1 53529U 22101C   22261.16667824 -.01126192  00000+0 -25558-1 0  9992
2 53529  53.2172  10.7924 0001667  41.2347 185.6228 15.45134770  4621
STARLINK-4482           
1 53530U 22101D   22260.91667824 -.01132999  00000+0 -24730-1 0  9999
2 53530  53.2171  12.0056 0001426  49.0680 230.9333 15.46280046  1304
STARLINK-4487           
1 53531U 22101E   22260.91667824 -.01132947  00000+0 -24924-1 0  9998
2 53531  53.2171  11.9961 0001492  45.5199 232.3714 15.46052666  1301
STARLINK-4483           
1 53532U 22101F   22260.91667824 -.01117987  00000+0 -22544-1 0  9992
2 53532  53.2172  12.1200 0001517  41.6418 248.3122 15.48958023  1305
STARLINK-4493           
1 53533U 22101G   22260.91667824 -.01117831  00000+0 -22361-1 0  9998
2 53533  53.2172  12.1282 0001323  53.3357 237.7413 15.49185296  1303
STARLINK-4488           
1 53534U 22101H   22261.16667824 -.01112458  00000+0 -21924-1 0  9991
2 53534  53.2173  10.9725 0001745  34.7254 215.7170 15.49587425  4624
STARLINK-4138           
1 53535U 22101J   22260.91667824 -.01118462  00000+0 -22072-1 0  9990
2 53535  53.2172  12.1421 0001365  48.7679 244.2917 15.49568807  1306
STARLINK-4053           
1 53536U 22101K   22260.91667824 -.00038319  00000+0 -26929-3 0  9999
2 53536  53.2172  10.6048 0002829  15.0771 282.9736 15.73241091  1309
STARLINK-4120           
1 53537U 22101L   22260.91667824 -.01118182  00000+0 -22311-1 0  9997
2 53537  53.2172  12.1303 0001531  40.6517 251.3397 15.49256454  1307
STARLINK-4118           
1 53538U 22101M   22260.91667824  .00016908  00000+0  12459-3 0  9992
2 53538  53.2169  10.6021 0002811  17.1223 281.4185 15.73210076  1305
STARLINK-4123           
1 53539U 22101N   22260.91667824 -.01068020  00000+0 -20770-1 0  9991
2 53539  53.2170  12.1532 0001537  43.1815 250.8174 15.49844963  1301
STARLINK-4486           
1 53540U 22101P   22261.16667824  .00001137  00000+0  12519-4 0  9999
2 53540  53.2177   9.3638 0002636  15.6076 260.8563 15.73228595  4646
STARLINK-4485           
1 53541U 22101Q   22261.16667824 -.01015054  00000+0 -19655-1 0  9991
2 53541  53.2175  10.9818 0001516  39.7197 211.6732 15.49826467  4625
STARLINK-4489           
1 53542U 22101R   22260.91667824  .00025982  00000+0  18871-3 0  9993
2 53542  53.2171  10.5987 0003041  13.9866 286.8641 15.73229393  1304
STARLINK-4297           
1 53543U 22101S   22260.91667824  .00002507  00000+0  22289-4 0  9991
2 53543  53.2171  10.6018 0002905  20.9627 278.3226 15.73202324  1302
STARLINK-4303           
1 53544U 22101T   22260.91667824  .00013476  00000+0  10010-3 0  9997
2 53544  53.2171  10.5969 0002948  21.2854 280.7609 15.73243073  1308
STARLINK-4475           
1 53545U 22101U   22261.16667824  .00105189  00000+0  74521-3 0  9996
2 53545  53.2175   9.3617 0002369  14.9973 262.0141 15.73177597  4648
STARLINK-4477           
1 53546U 22101V   22260.91667824 -.00024433  00000+0 -16998-3 0  9997
2 53546  53.2179   9.5132 0003393   4.9181 103.1056 15.73215215  1305
STARLINK-4474           
1 53547U 22101W   22260.91667824 -.00004315  00000+0 -26353-4 0  9992
2 53547  53.2173  10.5986 0002710  13.6165 287.9481 15.73174735  1304
STARLINK-4513           
1 53548U 22101X   22260.91667824  .00003301  00000+0  27925-4 0  9991
2 53548  53.2171  10.5923 0002875  19.0502 285.4622 15.73217259  1300
STARLINK-4516           
1 53549U 22101Y   22260.91667824 -.00001497  00000+0 -62290-5 0  9993
2 53549  53.2165  10.5922 0002659  15.2428 287.4885 15.73206588  1304
STARLINK-4518           
1 53550U 22101Z   22261.16667824  .00037691  00000+0  27123-3 0  9990
2 53550  53.2169   9.3509 0002773  17.9796 263.7660 15.73243739  4648
STARLINK-4514           
1 53551U 22101AA  22260.91667824  .00024638  00000+0  17940-3 0  9996
2 53551  53.2172  10.5945 0002937   9.3044 294.0744 15.73204570  1304
STARLINK-4495           
1 53552U 22101AB  22261.16667824 -.00004950  00000+0 -30808-4 0  9991
2 53552  53.2173   9.3493 0002766  11.6305 272.0032 15.73226594  4642
STARLINK-4501           
1 53553U 22101AC  22261.16667824 -.00007180  00000+0 -46646-4 0  9997
2 53553  53.2172   9.3506 0002712  17.1548 265.1954 15.73252033  4641
STARLINK-4506           
1 53554U 22101AD  22261.16667824  .00008285  00000+0  63386-4 0  9993
2 53554  53.2168   9.3446 0002422  17.0317 267.8699 15.73202634  4648
STARLINK-4504           
1 53555U 22101AE  22260.91667824 -.00073645  00000+0 -52353-3 0  9991
2 53555  53.2165  10.5855 0002858  15.9872 290.3292 15.73254334  1304
STARLINK-4505           
1 53556U 22101AF  22260.91667824 -.00096514  00000+0 -68908-3 0  9995
2 53556  53.2166  10.5816 0002887  13.4563 295.8964 15.73263354  1303
STARLINK-4502           
1 53557U 22101AG  22260.91667824 -.00039413  00000+0 -27730-3 0  9999
2 53557  53.2166  10.5849 0002618  15.0291 292.4808 15.73229145  1308
STARLINK-4494           
1 53558U 22101AH  22261.16667824  .00106107  00000+0  75175-3 0  9997
2 53558  53.2171   9.3421 0002578  19.8625 267.3335 15.73172275  4642
STARLINK-4508           
1 53559U 22101AJ  22261.16667824  .00106499  00000+0  75517-3 0  9992
2 53559  53.2171   9.3447 0002628  14.2991 271.1698 15.73150425  4640
STARLINK-4564           
1 53560U 22101AK  22261.16667824  .00042993  00000+0  30907-3 0  9996
2 53560  53.2167   9.3378 0002727  17.5222 270.8603 15.73205546  4640
STARLINK-4563           
1 53561U 22101AL  22260.91667824 -.00035215  00000+0 -24716-3 0  9991
2 53561  53.2165  10.5795 0002867  14.1932 295.7011 15.73228693  1309
STARLINK-4565           
1 53562U 22101AM  22260.91667824  .00014270  00000+0  10574-3 0  9995
2 53562  53.2164  10.5742 0002870  14.2003 298.5789 15.73240094  1307
STARLINK-4561           
1 53563U 22101AN  22260.91667824 -.00008997  00000+0 -59766-4 0  9994
2 53563  53.2166  10.5781 0002770  10.5008 300.5761 15.73182914  1306
STARLINK-4577           
1 53564U 22101AP  22261.16667824  .00107646  00000+0  76309-3 0  9993
2 53564  53.2164   9.3316 0002563  16.9345 273.8794 15.73152595  4649
STARLINK-4575           
1 53565U 22101AQ  22260.91667824  .00014653  00000+0  10843-3 0  9992
2 53565  53.2165  10.5749 0002726  18.6635 293.5407 15.73245107  1309
STARLINK-4576           
1 53566U 22101AR  22260.91667824 -.00086742  00000+0 -61790-3 0  9990
2 53566  53.2164  10.5699 0002801  13.3916 301.8308 15.73272839  1306
STARLINK-4585           
1 53567U 22101AS  22261.16667824  .00105328  00000+0  74625-3 0  9990
2 53567  53.2168   9.3351 0002673  14.7530 275.3952 15.73174514  4647
STARLINK-4583           
1 53568U 22101AT  22261.16667824  .00095749  00000+0  68019-3 0  9996
2 53568  53.2165   9.3270 0002873  14.1486 279.6440 15.73152061  4643
STARLINK-4582           
1 53569U 22101AU  22261.16667824  .00024895  00000+0  18118-3 0  9996
2 53569  53.2166   9.3314 0002730   9.6400 281.7407 15.73210128  4647
STARLINK-4550           
1 53570U 22101AV  22261.16667824  .00104314  00000+0  73967-3 0  9996
2 53570  53.2166   9.3285 0002609  15.0566 278.1443 15.73159716  4640
STARLINK-4584           
1 53571U 22101AW  22260.91667824 -.00032777  00000+0 -22965-3 0  9996
2 53571  53.2164  10.5673 0002679  13.8508 301.9815 15.73231739  1307
STARLINK-4555           
1 53572U 22101AX  22260.91667824  .00001289  00000+0  13611-4 0  9998
2 53572  53.2165  10.5626 0003124  13.9190 304.9334 15.73210859  1300
STARLINK-4547           
1 53573U 22101AY  22260.91667824  .00027905  00000+0  20229-3 0  9994
2 53573  53.2163  10.5644 0002955  15.9075 301.6335 15.73231080  1308
STARLINK-4559           
1 53574U 22101AZ  22260.91667824  .00011417  00000+0  85755-4 0  9992
2 53574  53.2167  10.5617 0002977  16.6304 303.5203 15.73171966  1301
STARLINK-4551           
1 53575U 22101BA  22261.16667824  .00089416  00000+0  63557-3 0  9990
2 53575  53.2165   9.3247 0002773  11.3110 283.7080 15.73167106  4649
STARLINK-4581           
1 53576U 22101BB  22260.91667824 -.00035710  00000+0 -25058-3 0  9997
2 53576  53.2159  10.5573 0002992  11.8872 308.7063 15.73239634  1307
STARLINK-4553           
1 53577U 22101BC  22260.91667824 -.00054662  00000+0 -38641-3 0  9997
2 53577  53.2163  10.5603 0002924  10.8613 308.4960 15.73263499  1303
STARLINK-4556           
1 53578U 22101BD  22260.91667824 -.00078218  00000+0 -55674-3 0  9996
2 53578  53.2163  10.5580 0002995  12.0902 309.1513 15.73248500  1309
STARLINK-4580           
1 53579U 22101BE  22260.91667824 -.00004301  00000+0 -26154-4 0  9991
2 53579  53.2163  10.5564 0003023  10.2706 311.4544 15.73251861  1301
CHUANGXIN 16 (CX-16)    
1 53586U 22102A   22260.91936617  .00002150  00000+0  19568-3 0  9997
2 53586  28.9996 202.5497 0004884 156.4836 203.5998 14.91704117  3866
